[{"OBJECT_NAME":"STARLINK-30326","OBJECT_ID":"2023-122H","EPOCH":"2026-03-09T22:00:01.999584","MEAN_MOTION":15.27555681,"ECCENTRICITY":0.0001795,"INCLINATION":43.001,"RA_OF_ASC_NODE":91.2156,"ARG_OF_PERICENTER":255.5784,"MEAN_ANOMALY":30.5815,"EPHEMERIS_TYPE":0,"CLASSIFICATION_TYPE":"U","NORAD_CAT_ID":57639,"ELEMENT_SET_NO":999,"REV_AT_EPOCH":572,"BSTAR":0.0012865938,"MEAN_MOTION_DOT":0.00035286,"MEAN_MOTION_DDOT":0},{"OBJECT_NAME":"KUIPER-00266","OBJECT_ID":"2026-030AB","EPOCH":"2026-03-08T21:54:37.698048","MEAN_MOTION":15.30874235,"ECCENTRICITY":0.0022313,"INCLINATION":51.8807,"RA_OF_ASC_NODE":223.5904,"ARG_OF_PERICENTER":72.5291,"MEAN_ANOMALY":287.8129,"EPHEMERIS_TYPE":0,"CLASSIFICATION_TYPE":"U","NORAD_CAT_ID":67789,"ELEMENT_SET_NO":999,"REV_AT_EPOCH":496,"BSTAR":0.00098219753,"MEAN_MOTION_DOT":0.00029701,"MEAN_MOTION_DDOT":0}]
